OBJECT_NAME,OBJECT_ID,EPOCH,MEAN_MOTION,ECCENTRICITY,INCLINATION,RA_OF_ASC_NODE,ARG_OF_PERICENTER,MEAN_ANOMALY,EPHEMERIS_TYPE,CLASSIFICATION_TYPE,NORAD_CAT_ID,ELEMENT_SET_NO,REV_AT_EPOCH,BSTAR,MEAN_MOTION_DOT,MEAN_MOTION_DDOT
GLOBALSTAR M069,2007-020C,2026-06-27T12:04:16.282272,12.23471613,.00021,52.0005,222.9291,170.7651,330.1583,0,U,31573,999,88006,.3766E-3,-.52E-6,0
GLOBALSTAR M072,2007-020D,2026-06-27T11:28:06.062016,11.91658438,.0001524,51.9937,72.8490,357.6329,173.4660,0,U,31574,999,87620,-.12276E-5,-.84E-6,0
GLOBALSTAR M066,2007-048C,2026-06-27T08:04:49.203840,12.30387084,.0005633,51.9601,28.7764,65.6063,105.5691,0,U,32265,999,86147,-.75425E-4,-.103E-5,0
GLOBALSTAR M079,2010-054A,2026-06-27T10:54:25.959168,12.62266253,.0000932,52.0044,77.4150,46.4091,125.1527,0,U,37188,999,72384,.83563E-5,-.102E-5,0
GLOBALSTAR M074,2010-054B,2026-06-27T11:32:53.826720,12.62261818,.0000727,52.0014,76.5968,69.1286,104.1272,0,U,37189,999,72445,-.31846E-4,-.109E-5,0
GLOBALSTAR M076,2010-054C,2026-06-27T10:16:25.487328,12.62261909,.0000948,52.0031,76.9626,62.3118,109.4046,0,U,37190,999,72416,-.29466E-4,-.109E-5,0
GLOBALSTAR M077,2010-054D,2026-06-27T05:07:01.865856,11.67547984,.00025714,51.9926,153.8471,190.9211,182.0962,0,U,37191,999,72231,.12430075E-3,-.71E-6,0
GLOBALSTAR M075,2010-054E,2026-06-27T02:09:02.324736,12.62267415,.00003995,51.9939,120.0415,36.5440,336.5239,0,U,37192,999,72319,-.47673084E-4,-.112E-5,0
GLOBALSTAR M073,2010-054F,2026-06-27T13:36:18.640224,12.62266682,.0001071,52.0075,32.6972,68.1797,313.1736,0,U,37193,999,72524,.98287E-4,-.86E-6,0
GLOBALSTAR M083,2011-033A,2026-06-27T12:06:33.041376,12.62263639,.0000952,51.9881,341.1011,84.0452,315.3081,0,U,37739,999,69425,.12026E-3,-.82E-6,0
GLOBALSTAR M088,2011-033B,2026-06-27T11:20:49.673760,12.62268976,.0000478,52.0202,247.6524,141.7564,231.7145,0,U,37740,999,68979,.13858E-3,-.79E-6,0
GLOBALSTAR M091,2011-033C,2026-06-27T12:26:51.539712,12.62264125,.0000044,51.9968,210.4621,187.6833,335.1079,0,U,37741,999,69058,.16445E-3,-.74E-6,0
GLOBALSTAR M085,2011-033D,2026-06-27T05:38:20.344416,12.62264180,.00003438,52.0099,162.6251,357.1152,15.9637,0,U,37742,999,69106,.2420085E-4,-.99E-6,0
GLOBALSTAR M081,2011-033E,2026-06-27T06:45:07.553088,12.62265274,.0000246,51.9930,164.9088,35.6366,68.0144,0,U,37743,999,69121,.65281E-4,-.92E-6,0
GLOBALSTAR M089,2011-033F,2026-06-27T03:25:20.295264,12.62267414,.00004973,51.9920,119.4879,78.4915,295.3457,0,U,37744,999,69204,-.29640467E-4,-.109E-5,0
GLOBALSTAR M084,2011-080A,2026-06-27T04:34:15.276576,12.62267649,.00010975,52.0026,346.8286,102.1922,69.1514,0,U,38040,999,67002,.43480498E-4,-.96E-6,0
GLOBALSTAR M080,2011-080B,2026-06-27T05:46:55.811136,12.62269764,.00004213,52.0084,348.3967,77.4570,93.4421,0,U,38041,999,67015,.10790566E-3,-.84E-6,0
GLOBALSTAR M082,2011-080C,2026-06-27T02:21:04.485312,12.62263746,.00004742,52.0089,304.3343,106.2239,64.5730,0,U,38042,999,67084,.15420679E-4,-.101E-5,0
GLOBALSTAR M092,2011-080D,2026-06-27T07:25:45.137280,12.62267146,.0000823,52.0098,34.0875,77.7157,94.1440,0,U,38043,999,66932,.69362E-4,-.91E-6,0
GLOBALSTAR M090,2011-080E,2026-06-27T12:00:23.078304,12.62269076,.0000712,52.0133,297.0687,103.7936,335.2046,0,U,38044,999,67101,-.11584E-4,-.106E-5,0
GLOBALSTAR M086,2011-080F,2026-06-27T12:32:19.082112,12.62287246,.0001684,51.9909,296.9143,84.9838,356.5373,0,U,38045,999,67096,.13423E-3,-.8E-6,0
GLOBALSTAR M097,2013-005A,2026-06-27T09:03:52.930944,12.62271211,.0000135,52.0016,212.3164,93.0650,267.0232,0,U,39072,999,61819,.16919E-3,-.73E-6,0
GLOBALSTAR M093,2013-005B,2026-06-27T12:13:16.633920,12.62266077,.0000237,52.0074,205.2656,38.7335,321.3549,0,U,39073,999,61816,.13716E-3,-.79E-6,0
GLOBALSTAR M094,2013-005C,2026-06-27T12:13:05.293056,12.62268493,.0000669,51.9947,119.3712,29.1394,330.9510,0,U,39074,999,61977,-.11547E-3,-.124E-5,0
GLOBALSTAR M096,2013-005D,2026-06-27T06:50:27.698784,12.62265660,.0000283,52.0045,168.8632,1.5364,358.5504,0,U,39075,999,61866,.22405E-4,-.1E-5,0
GLOBALSTAR M078,2013-005E,2026-06-27T11:53:45.049056,12.62260014,.0000508,51.9866,252.2194,274.3158,85.7651,0,U,39076,999,61731,.78329E-3,.37E-6,0
GLOBALSTAR M095,2013-005F,2026-06-27T10:38:12.069600,12.62263641,.0000045,52.0071,249.9976,81.6749,278.4123,0,U,39077,999,61716,.15703E-3,-.76E-6,0
GLOBALSTAR M087,2022-064A,2026-06-27T07:09:08.788032,12.62269232,.0000893,52.0010,31.6708,58.6839,301.4115,0,U,52888,999,19241,.45278E-4,-.96E-6,0
